*******************************************************************************
Ephemeris / WWW_USER Mon Mar 26 21:13:22 2018 Pasadena, USA      / Horizons    
*******************************************************************************
Target body name: Pluto (999)                     {source: plu055l_merged}
Center body name: Pluto Barycenter (9)            {source: plu055l_merged}
Center-site name: BODY CENTER
*******************************************************************************
Start time      : A.D. 2000-Jan-01 00:00:00.0000 TDB
Stop  time      : A.D. 2010-Jan-01 00:00:00.0000 TDB
Step-size       : 7200 minutes
*******************************************************************************
Center geodetic : 0.00000000,0.00000000,0.0000000 {E-lon(deg),Lat(deg),Alt(km)}
Center cylindric: 0.00000000,0.00000000,0.0000000 {E-lon(deg),Dxy(km),Dz(km)}
Center radii    : (undefined)                                                  
Output units    : AU-D                                                         
Output type     : GEOMETRIC cartesian states
Output format   : 2 (position and velocity)
Reference frame : ICRF/J2000.0                                                 
Coordinate systm: Ecliptic and Mean Equinox of Reference Epoch                 
*******************************************************************************
JDTDB
   X     Y     Z
   VX    VY    VZ
*******************************************************************************
$$SOE
2454064.500000000 = A.D. 2006-Nov-25 00:00:00.0000 TDB 
  -2.484804583294508E-06 -9.281652958028392E-06 -1.054368342064808E-05
  -1.002138562005498E-05 -6.083193499634829E-06  7.717074866397237E-06
2454069.500000000 = A.D. 2006-Nov-30 00:00:00.0000 TDB 
   9.463678654609930E-06  4.154715006879925E-06 -9.835567950527859E-06
  -4.443676150753052E-06 -1.018215780817166E-05 -8.572759576379461E-06
2454074.500000000 = A.D. 2006-Dec-05 00:00:00.0000 TDB 
   6.363586237518527E-06  1.098622101149164E-05  6.515221886999957E-06
   8.199151714440511E-06  1.911071746080354E-06 -1.122722907192880E-05
2454079.500000000 = A.D. 2006-Dec-10 00:00:00.0000 TDB 
  -6.854053505901508E-06  3.491012641270077E-07  1.250499366187735E-05
   7.804169278314475E-06  1.096738978399812E-05  3.974332132428635E-06
2454084.500000000 = A.D. 2006-Dec-15 00:00:00.0000 TDB 
  -9.165788845319960E-06 -1.084064225182483E-05 -1.398107452083365E-06
  -5.007113270467544E-06  2.577532353753904E-06  1.285721663934828E-05
2454089.500000000 = A.D. 2006-Dec-20 00:00:00.0000 TDB 
   3.106932539693129E-06 -4.782150410118996E-06 -1.307850456303589E-05
  -9.851911108834445E-06 -9.912118907628882E-06  1.285675660784634E-06
2454094.500000000 = A.D. 2006-Dec-25 00:00:00.0000 TDB 
   1.043988008862692E-05  8.883763735275595E-06 -3.958412838455592E-06
   9.721205889075970E-07 -6.634580831739254E-06 -1.232648323295228E-05
2454099.500000000 = A.D. 2006-Dec-30 00:00:00.0000 TDB 
   1.172084427202462E-06  8.423086645481658E-06  1.145561958196489E-05
   1.024964451824666E-05  7.193161385997646E-06 -6.336124433667239E-06
2454104.500000000 = A.D. 2007-Jan-04 00:00:00.0000 TDB 
  -9.958953302477185E-06 -5.433231420030254E-06  8.649851935331947E-06
   3.225814462466424E-06  9.583112208493468E-06  9.735309737356591E-06
2454109.500000000 = A.D. 2007-Jan-09 00:00:00.0000 TDB 
  -5.245590927828306E-06 -1.064436438674225E-05 -7.915869136937037E-06
  -8.931439072119079E-06 -3.273075286640915E-06  1.032082927210955E-05
2454114.500000000 = A.D. 2007-Jan-14 00:00:00.0000 TDB 
   7.814263789993906E-06  1.080085041655304E-06 -1.188813005885621E-05
  -6.879124494506023E-06 -1.091978102033198E-05 -5.510240880545799E-06
2454119.500000000 = A.D. 2007-Jan-19 00:00:00.0000 TDB 
   8.449060123776465E-06  1.108978515450063E-05  3.046550040444340E-06
   6.111716596162900E-06 -1.200063031011665E-06 -1.257491523960330E-05
2454124.500000000 = A.D. 2007-Jan-24 00:00:00.0000 TDB 
  -4.349354200419323E-06  3.466481308891609E-06  1.313545569163764E-05
   9.384362746869704E-06  1.042935964929632E-05  3.580830158978579E-07
2454129.500000000 = A.D. 2007-Jan-29 00:00:00.0000 TDB 
  -1.022678309456878E-05 -9.668944299293969E-06  2.328726914976799E-06
  -2.271684287819249E-06  5.470291066421719E-06  1.272558997206382E-05
2454134.500000000 = A.D. 2007-Feb-03 00:00:00.0000 TDB 
   1.674221981959513E-07 -7.421157589009503E-06 -1.218456456140316E-05
  -1.031392907770812E-05 -8.191672748808906E-06  4.848002770895454E-06
2454139.500000000 = A.D. 2007-Feb-08 00:00:00.0000 TDB 
   1.029614981355212E-05  6.631548320129119E-06 -7.317212214624808E-06
  -1.950540098633077E-06 -8.821203824764871E-06 -1.073692161299171E-05
2454144.500000000 = A.D. 2007-Feb-13 00:00:00.0000 TDB 
   4.051841611355231E-06  1.013936981568238E-05  9.187094148660388E-06
   9.513436744089196E-06  4.576726838944830E-06 -9.245998562604112E-06
2454149.500000000 = A.D. 2007-Feb-18 00:00:00.0000 TDB 
  -8.635087301974196E-06 -2.476048703767850E-06  1.108161376691815E-05
   5.848687614770120E-06  1.069879889549507E-05  6.952003339342803E-06
2454154.500000000 = A.D. 2007-Feb-23 00:00:00.0000 TDB 
  -7.582960803430809E-06 -1.114956568301866E-05 -4.651797496066619E-06
  -7.122040808010973E-06 -1.992760108952279E-07  1.209325484211221E-05
2454159.500000000 = A.D. 2007-Feb-28 00:00:00.0000 TDB 
   5.535636177840048E-06 -2.082681366108281E-06 -1.298532824179888E-05
  -8.761270082958547E-06 -1.077857201194883E-05 -2.003665668399892E-06
2454164.500000000 = A.D. 2007-Mar-05 00:00:00.0000 TDB 
   9.852904420466539E-06  1.029889908175610E-05 -6.675685672271865E-07
   3.532239360663598E-06 -4.214411479133711E-06 -1.290994498133081E-05
2454169.500000000 = A.D. 2007-Mar-10 00:00:00.0000 TDB 
  -1.496165346112632E-06  6.303954434992660E-06  1.270997933450202E-05
   1.020882335972618E-05  9.051936358376773E-06 -3.286215861814756E-06
2454174.500000000 = A.D. 2007-Mar-15 00:00:00.0000 TDB 
  -1.046414265025137E-05 -7.717025774586893E-06  5.870439638940722E-06
   6.471489602483172E-07  7.922746520710725E-06  1.156871052885745E-05
2454179.500000000 = A.D. 2007-Mar-20 00:00:00.0000 TDB 
  -2.784011572406924E-06 -9.460314012468691E-06 -1.030854364230547E-05
  -9.945109515008019E-06 -5.811327528011169E-06  8.019837949364772E-06
2454184.500000000 = A.D. 2007-Mar-25 00:00:00.0000 TDB 
   9.325641731998128E-06  3.846716987912345E-06 -1.008860146088152E-05
  -4.716452539595771E-06 -1.029822284441292E-05 -8.283367130648814E-06
2454189.500000000 = A.D. 2007-Mar-30 00:00:00.0000 TDB 
   6.606129348789011E-06  1.103868724134984E-05  6.176593024151696E-06
   8.011115489930910E-06  1.591777017395210E-06 -1.141122462727977E-05
2454194.500000000 = A.D. 2007-Apr-04 00:00:00.0000 TDB 
  -6.616579862653541E-06  6.787913230937039E-07  1.261948939047025E-05
   7.999981427332394E-06  1.095259181711801E-05  3.609350645351895E-06
2454199.500000000 = A.D. 2007-Apr-09 00:00:00.0000 TDB 
  -9.310982782049706E-06 -1.075797215004804E-05 -1.012566484427789E-06
  -4.738803522853069E-06  2.890958182036126E-06  1.289190425868964E-05
2454204.500000000 = A.D. 2007-Apr-14 00:00:00.0000 TDB 
   2.810281865767150E-06 -5.077973576153565E-06 -1.303558551013091E-05
  -9.938054824757138E-06 -9.769282011922865E-06  1.664722941382942E-06
2454209.500000000 = A.D. 2007-Apr-19 00:00:00.0000 TDB 
   1.046346495409914E-05  8.679690856405977E-06 -4.326571921557871E-06
   6.686531025123738E-07 -6.889389622718125E-06 -1.220595643468741E-05
2454214.500000000 = A.D. 2007-Apr-24 00:00:00.0000 TDB 
   1.478023036565933E-06  8.634958884365719E-06  1.126196808152019E-05
   1.021133023436452E-05  6.945910195576033E-06 -6.665601172182886E-06
2454219.500000000 = A.D. 2007-Apr-29 00:00:00.0000 TDB 
  -9.857477753725345E-06 -5.142252449838186E-06  8.939324359345857E-06
   3.513843082194369E-06  9.736843230191153E-06  9.479699914718839E-06
2454224.500000000 = A.D. 2007-May-04 00:00:00.0000 TDB 
  -5.509882703665855E-06 -1.073679789419098E-05 -7.603389056505578E-06
  -8.775235009960204E-06 -2.962823173115508E-06  1.054581249227154E-05
2454229.500000000 = A.D. 2007-May-09 00:00:00.0000 TDB 
   7.605136924234105E-06  7.517494004592277E-07 -1.204985106193841E-05
  -7.103127158071006E-06 -1.094663547174675E-05 -5.162879807985536E-06
2454234.500000000 = A.D. 2007-May-14 00:00:00.0000 TDB 
   8.627858158472681E-06  1.104762741060580E-05  2.667379130758467E-06
   5.863752018953415E-06 -1.521252592540443E-06 -1.265750367651680E-05
2454239.500000000 = A.D. 2007-May-19 00:00:00.0000 TDB 
  -4.067140535699679E-06  3.777147915731460E-06  1.314148965442631E-05
   9.506664131504152E-06  1.032449731900456E-05 -2.312415923292006E-08
2454244.500000000 = A.D. 2007-May-24 00:00:00.0000 TDB 
  -1.029049420621154E-05 -9.499869472671729E-06  2.710722576663300E-06
  -1.973463406194777E-06  5.748834468996016E-06  1.265224251690526E-05
2454249.500000000 = A.D. 2007-May-29 00:00:00.0000 TDB 
  -1.410352833467406E-07 -7.662575969413189E-06 -1.203388845176443E-05
  -1.031425748068215E-05 -7.972874921538956E-06  5.199226977448742E-06
2454254.500000000 = A.D. 2007-Jun-03 00:00:00.0000 TDB 
   1.023377114345117E-05  6.364054215645200E-06 -7.637195011982126E-06
  -2.248647438425635E-06 -9.010021921708843E-06 -1.051997532671121E-05
2454259.500000000 = A.D. 2007-Jun-08 00:00:00.0000 TDB 
   4.334943748808437E-06  1.027134971048425E-05  8.905213827354852E-06
   9.391536767817243E-06  4.280526999207657E-06 -9.508244520078081E-06
2454264.500000000 = A.D. 2007-Jun-13 00:00:00.0000 TDB 
  -8.456626730982350E-06 -2.154486939102722E-06  1.128594108038465E-05
   6.096937274271092E-06  1.076626011419033E-05  6.627462277212372E-06
2454269.500000000 = A.D. 2007-Jun-18 00:00:00.0000 TDB 
  -7.793161483109648E-06 -1.115009785712651E-05 -4.286298211811307E-06
  -6.898541177190569E-06  1.246843226799810E-07  1.222292021056309E-05
